start=new Date('2022-03-29T00:00:00.000Z').valueOf();
sats=[{"ECCENTRICITY":"0.00016820","REV_AT_EPOCH":"368","TLE_LINE1":"1 51796U 22017AE  22087.91667824 -.00711030  00000-0 -10208-1 0  9998","PERIOD":"92.432","LAUNCH_DATE":"2022-02-25","ELEMENT_SET_NO":"999","INCLINATION":"53.2173","OBJECT_NAME":"STARLINK-3630","PERIAPSIS":"392.602","NORAD_CAT_ID":"51796","RCS_SIZE":"LARGE","CLASSIFICATION_TYPE":"U","ARG_OF_PERICENTER":"42.4619","DECAY_DATE":null,"OBJECT_TYPE":"PAYLOAD","FILE":"3378342","TIME_SYSTEM":"UTC","MEAN_MOTION_DDOT":"0.0000000000000","REF_FRAME":"TEME","TLE_LINE2":"2 51796  53.2173 349.2818 0001682  42.4619 131.1383 15.57898798  3683","EPOCH":"2022-03-28T22:00:00.999936","MEAN_MOTION":"15.57898798","MEAN_MOTION_DOT":"-0.00711030","OBJECT_ID":"2022-017AE","MEAN_ANOMALY":"131.1383","SITE":"AFWTR","BSTAR":"-0.01020800000000","COUNTRY_CODE":"US","EPHEMERIS_TYPE":"0","SEMIMAJOR_AXIS":"6771.876","RA_OF_ASC_NODE":"349.2818","CENTER_NAME":"EARTH","GP_ID":"199946552","MEAN_ELEMENT_THEORY":"SGP4","APOAPSIS":"394.880"},{"MEAN_ANOMALY":"156.8133","SITE":"AFWTR","COUNTRY_CODE":"US","BSTAR":"-0.00960930000000","EPHEMERIS_TYPE":"0","SEMIMAJOR_AXIS":"6767.215","RA_OF_ASC_NODE":"349.2913","CENTER_NAME":"EARTH","GP_ID":"199946443","MEAN_ELEMENT_THEORY":"SGP4","APOAPSIS":"389.984","MEAN_MOTION_DDOT":"0.0000000000000","REF_FRAME":"TEME","TLE_LINE2":"2 51797  53.2174 349.2913 0001335  67.8930 156.8133 15.59508635  3680","EPOCH":"2022-03-28T22:00:00.999936","MEAN_MOTION":"15.59508635","MEAN_MOTION_DOT":"-0.00711542","OBJECT_ID":"2022-017AF","RCS_SIZE":"LARGE","NORAD_CAT_ID":"51797","CLASSIFICATION_TYPE":"U","DECAY_DATE":null,"ARG_OF_PERICENTER":"67.8930","OBJECT_TYPE":"PAYLOAD","FILE":"3378342","TIME_SYSTEM":"UTC","ECCENTRICITY":"0.00013350","REV_AT_EPOCH":"368","TLE_LINE1":"1 51797U 22017AF  22087.91667824 -.00711542  00000-0 -96093-2 0  9994","PERIOD":"92.337","LAUNCH_DATE":"2022-02-25","ELEMENT_SET_NO":"999","INCLINATION":"53.2174","OBJECT_NAME":"STARLINK-3627","PERIAPSIS":"388.177"},{"TLE_LINE1":"1 51798U 22017AG  22087.91667824 -.00711032  00000-0 -10159-1 0  9997","REV_AT_EPOCH":"368","ECCENTRICITY":"0.00015990","LAUNCH_DATE":"2022-02-25","PERIOD":"92.425","ELEMENT_SET_NO":"999","PERIAPSIS":"392.288","OBJECT_NAME":"STARLINK-3634","INCLINATION":"53.2173","OBJECT_TYPE":"PAYLOAD","ARG_OF_PERICENTER":"45.8186","DECAY_DATE":null,"CLASSIFICATION_TYPE":"U","RCS_SIZE":"LARGE","NORAD_CAT_ID":"51798","FILE":"3378342","TIME_SYSTEM":"UTC","REF_FRAME":"TEME","MEAN_MOTION_DDOT":"0.0000000000000","EPOCH":"2022-03-28T22:00:00.999936","TLE_LINE2":"2 51798  53.2173 349.2815 0001599  45.8186 133.0053 15.58026582  3685","MEAN_MOTION_DOT":"-0.00711032","MEAN_MOTION":"15.58026582","OBJECT_ID":"2022-017AG","BSTAR":"-0.01015900000000","COUNTRY_CODE":"US","SITE":"AFWTR","MEAN_ANOMALY":"133.0053","SEMIMAJOR_AXIS":"6771.506","EPHEMERIS_TYPE":"0","GP_ID":"199946992","CENTER_NAME":"EARTH","RA_OF_ASC_NODE":"349.2815","APOAPSIS":"394.454","MEAN_ELEMENT_THEORY":"SGP4"},{"MEAN_MOTION_DOT":"-0.00712214","MEAN_MOTION":"15.60020278","OBJECT_ID":"2022-017AH","REF_FRAME":"TEME","MEAN_MOTION_DDOT":"0.0000000000000","TLE_LINE2":"2 51799  53.2174 349.2859 0001424  55.8721 187.5638 15.60020278  3680","EPOCH":"2022-03-28T22:00:00.999936","RA_OF_ASC_NODE":"349.2859","GP_ID":"199946662","CENTER_NAME":"EARTH","APOAPSIS":"388.564","MEAN_ELEMENT_THEORY":"SGP4","MEAN_ANOMALY":"187.5638","COUNTRY_CODE":"US","BSTAR":"-0.00943170000000","SITE":"AFWTR","EPHEMERIS_TYPE":"0","SEMIMAJOR_AXIS":"6765.735","ELEMENT_SET_NO":"999","OBJECT_NAME":"STARLINK-3637","INCLINATION":"53.2174","PERIAPSIS":"386.637","ECCENTRICITY":"0.00014240","TLE_LINE1":"1 51799U 22017AH  22087.91667824 -.00712214  00000-0 -94317-2 0  9990","REV_AT_EPOCH":"368","PERIOD":"92.306","LAUNCH_DATE":"2022-02-25","FILE":"3378342","TIME_SYSTEM":"UTC","CLASSIFICATION_TYPE":"U","NORAD_CAT_ID":"51799","RCS_SIZE":"LARGE","OBJECT_TYPE":"PAYLOAD","ARG_OF_PERICENTER":"55.8721","DECAY_DATE":null},{"GP_ID":"199946882","CENTER_NAME":"EARTH","RA_OF_ASC_NODE":"349.2806","APOAPSIS":"393.713","MEAN_ELEMENT_THEORY":"SGP4","COUNTRY_CODE":"US","BSTAR":"-0.01007500000000","SITE":"AFWTR","MEAN_ANOMALY":"133.2545","SEMIMAJOR_AXIS":"6770.865","EPHEMERIS_TYPE":"0","MEAN_MOTION":"15.58247917","MEAN_MOTION_DOT":"-0.00711063","OBJECT_ID":"2022-017AJ","REF_FRAME":"TEME","MEAN_MOTION_DDOT":"0.0000000000000","EPOCH":"2022-03-28T22:00:00.999936","TLE_LINE2":"2 51800  53.2173 349.2806 0001452  54.6945 133.2545 15.58247917  3683","FILE":"3378342","TIME_SYSTEM":"UTC","OBJECT_TYPE":"PAYLOAD","DECAY_DATE":null,"ARG_OF_PERICENTER":"54.6945","CLASSIFICATION_TYPE":"U","RCS_SIZE":"LARGE","NORAD_CAT_ID":"51800","ELEMENT_SET_NO":"999","PERIAPSIS":"391.747","OBJECT_NAME":"STARLINK-3600","INCLINATION":"53.2173","TLE_LINE1":"1 51800U 22017AJ  22087.91667824 -.00711063  00000-0 -10075-1 0  9992","REV_AT_EPOCH":"368","ECCENTRICITY":"0.00014520","LAUNCH_DATE":"2022-02-25","PERIOD":"92.411"},{"ELEMENT_SET_NO":"999","OBJECT_NAME":"STARLINK-3592","INCLINATION":"53.2173","PERIAPSIS":"392.972","ECCENTRICITY":"0.00016830","TLE_LINE1":"1 51801U 22017AK  22087.91667824 -.00711063  00000-0 -10258-1 0  9996","REV_AT_EPOCH":"368","PERIOD":"92.440","LAUNCH_DATE":"2022-02-25","FILE":"3378342","TIME_SYSTEM":"UTC","CLASSIFICATION_TYPE":"U","RCS_SIZE":"LARGE","NORAD_CAT_ID":"51801","OBJECT_TYPE":"PAYLOAD","DECAY_DATE":null,"ARG_OF_PERICENTER":"41.5012","MEAN_MOTION_DOT":"-0.00711063","MEAN_MOTION":"15.57770991","OBJECT_ID":"2022-017AK","REF_FRAME":"TEME","MEAN_MOTION_DDOT":"0.0000000000000","TLE_LINE2":"2 51801  53.2173 349.2819 0001683  41.5012 126.8371 15.57770991  3681","EPOCH":"2022-03-28T22:00:00.999936","RA_OF_ASC_NODE":"349.2819","GP_ID":"199946772","CENTER_NAME":"EARTH","APOAPSIS":"395.251","MEAN_ELEMENT_THEORY":"SGP4","MEAN_ANOMALY":"126.8371","COUNTRY_CODE":"US","BSTAR":"-0.01025800000000","SITE":"AFWTR","EPHEMERIS_TYPE":"0","SEMIMAJOR_AXIS":"6772.247"},{"TIME_SYSTEM":"UTC","FILE":"3378342","DECAY_DATE":null,"ARG_OF_PERICENTER":"76.2882","OBJECT_TYPE":"PAYLOAD","NORAD_CAT_ID":"51802","RCS_SIZE":"LARGE","CLASSIFICATION_TYPE":"U","PERIAPSIS":"388.442","INCLINATION":"53.2174","OBJECT_NAME":"STARLINK-3557","ELEMENT_SET_NO":"999","LAUNCH_DATE":"2022-02-25","PERIOD":"92.342","REV_AT_EPOCH":"368","TLE_LINE1":"1 51802U 22017AL  22087.91667824 -.00711627  00000-0 -96404-2 0  9991","ECCENTRICITY":"0.00012880","MEAN_ELEMENT_THEORY":"SGP4","APOAPSIS":"390.185","CENTER_NAME":"EARTH","GP_ID":"199947102","RA_OF_ASC_NODE":"349.2804","SEMIMAJOR_AXIS":"6767.448","EPHEMERIS_TYPE":"0","SITE":"AFWTR","BSTAR":"-0.00964040000000","COUNTRY_CODE":"US","MEAN_ANOMALY":"152.8342","OBJECT_ID":"2022-017AL","MEAN_MOTION":"15.59428048","MEAN_MOTION_DOT":"-0.00711627","EPOCH":"2022-03-28T22:00:00.999936","TLE_LINE2":"2 51802  53.2174 349.2804 0001288  76.2882 152.8342 15.59428048  3680","MEAN_MOTION_DDOT":"0.0000000000000","REF_FRAME":"TEME"},{"OBJECT_ID":"2022-017AM","MEAN_MOTION":"15.58154399","MEAN_MOTION_DOT":"-0.00711045","TLE_LINE2":"2 51803  53.2173 349.2811 0001634  44.0705 139.9386 15.58154399  3688","EPOCH":"2022-03-28T22:00:00.999936","MEAN_MOTION_DDOT":"0.0000000000000","REF_FRAME":"TEME","MEAN_ELEMENT_THEORY":"SGP4","APOAPSIS":"394.107","RA_OF_ASC_NODE":"349.2811","CENTER_NAME":"EARTH","GP_ID":"199946334","EPHEMERIS_TYPE":"0","SEMIMAJOR_AXIS":"6771.136","MEAN_ANOMALY":"139.9386","SITE":"AFWTR","COUNTRY_CODE":"US","BSTAR":"-0.01011000000000","INCLINATION":"53.2173","OBJECT_NAME":"STARLINK-3544","PERIAPSIS":"391.894","ELEMENT_SET_NO":"999","PERIOD":"92.417","LAUNCH_DATE":"2022-02-25","ECCENTRICITY":"0.00016340","REV_AT_EPOCH":"368","TLE_LINE1":"1 51803U 22017AM  22087.91667824 -.00711045  00000-0 -10110-1 0  9995","TIME_SYSTEM":"UTC","FILE":"3378342","RCS_SIZE":"LARGE","NORAD_CAT_ID":"51803","CLASSIFICATION_TYPE":"U","DECAY_DATE":null,"ARG_OF_PERICENTER":"44.0705","OBJECT_TYPE":"PAYLOAD"},{"GP_ID":"199946553","CENTER_NAME":"EARTH","RA_OF_ASC_NODE":"348.7929","APOAPSIS":"350.291","MEAN_ELEMENT_THEORY":"SGP4","BSTAR":"-0.00067607000000","COUNTRY_CODE":"US","SITE":"AFWTR","MEAN_ANOMALY":"30.4342","SEMIMAJOR_AXIS":"6727.768","EPHEMERIS_TYPE":"0","MEAN_MOTION":"15.73244474","MEAN_MOTION_DOT":"-0.00094617","OBJECT_ID":"2022-017AN","REF_FRAME":"TEME","MEAN_MOTION_DDOT":"0.0000000000000","EPOCH":"2022-03-28T22:00:00.999936","TLE_LINE2":"2 51804  53.2202 348.7929 0000978  73.2240  30.4342 15.73244474  3682","FILE":"3378342","TIME_SYSTEM":"UTC","OBJECT_TYPE":"PAYLOAD","ARG_OF_PERICENTER":"73.2240","DECAY_DATE":null,"CLASSIFICATION_TYPE":"U","RCS_SIZE":"LARGE","NORAD_CAT_ID":"51804","ELEMENT_SET_NO":"999","PERIAPSIS":"348.975","OBJECT_NAME":"STARLINK-3601","INCLINATION":"53.2202","TLE_LINE1":"1 51804U 22017AN  22087.91667824 -.00094617  00000-0 -67607-3 0  9990","REV_AT_EPOCH":"368","ECCENTRICITY":"0.00009780","LAUNCH_DATE":"2022-02-25","PERIOD":"91.531"},{"SITE":"AFWTR","BSTAR":"-0.00095200000000","COUNTRY_CODE":"US","MEAN_ANOMALY":"11.3906","SEMIMAJOR_AXIS":"6727.645","EPHEMERIS_TYPE":"0","CENTER_NAME":"EARTH","GP_ID":"199946444","RA_OF_ASC_NODE":"348.8088","MEAN_ELEMENT_THEORY":"SGP4","APOAPSIS":"350.206","MEAN_MOTION_DDOT":"0.0000000000000","REF_FRAME":"TEME","EPOCH":"2022-03-28T22:00:00.999936","TLE_LINE2":"2 51805  53.2174 348.8088 0001035  81.1091  11.3906 15.73287792  3689","MEAN_MOTION":"15.73287792","MEAN_MOTION_DOT":"-0.00132633","OBJECT_ID":"2022-017AP","DECAY_DATE":null,"ARG_OF_PERICENTER":"81.1091","OBJECT_TYPE":"PAYLOAD","NORAD_CAT_ID":"51805","RCS_SIZE":"LARGE","CLASSIFICATION_TYPE":"U","FILE":"3378342","TIME_SYSTEM":"UTC","REV_AT_EPOCH":"368","TLE_LINE1":"1 51805U 22017AP  22087.91667824 -.00132633  00000-0 -95200-3 0  9992","ECCENTRICITY":"0.00010350","LAUNCH_DATE":"2022-02-25","PERIOD":"91.528","ELEMENT_SET_NO":"999","PERIAPSIS":"348.814","INCLINATION":"53.2174","OBJECT_NAME":"STARLINK-3605"}];
